stk.v.4.3 

BEGIN Ephemeris 

NumberOfEpemerisPoints 240
Central Body Earth
CoordinateSystem Inertial
EphemerisTimePosVel
15 -1.31264764620281e+04 1.08589269977283e+04 1.98477392948160e+04 -3.14345843277975e+00 -8.98732475940770e-01 
15 -1.32713639461630e+04 1.07576569185108e+04 1.98057543299949e+04 -3.12987773007225e+00 -9.19132714110874e-01 
15 -1.34154539765029e+04 1.06559937022487e+04 1.97628782794247e+04 -3.11616339428668e+00 -9.39467002013802e-01 
15 -1.35587478587743e+04 1.05539396275206e+04 1.97191145322362e+04 -3.10231602318466e+00 -9.59735321191765e-01 
15 -1.37012468406764e+04 1.04514968988723e+04 1.96744663590902e+04 -3.08833619543305e+00 -9.79937650975198e-01 
15 -1.38429521108356e+04 1.03486676483245e+04 1.96289369133988e+04 -3.07422447086865e+00 -1.00007396828823e+00 
15 -1.39838647977674e+04 1.02454539368563e+04 1.95825292325201e+04 -3.05998139075813e+00 -1.02014424745631e+00 
15 -1.41239859688432e+04 1.01418577558625e+04 1.95352462389260e+04 -3.04560747805321e+00 -1.04014846001579e+00 
15 -1.42633166292639e+04 1.00378810285865e+04 1.94870907413442e+04 -3.03110323764122e+00 -1.06008657452535e+00 
15 -1.44018577210360e+04 9.93352561153129e+03 1.94380654358756e+04 -3.01646915659114e+00 -1.07995855637912e+00 
15 -1.45396101219518e+04 9.82879329584574e+03 1.93881729070852e+04 -3.00170570439534e+00 -1.09976436762132e+00 
15 -1.46765746445717e+04 9.72368580869070e+03 1.93374156290698e+04 -2.98681333320694e+00 -1.11950396676242e+00 
15 -1.48127520352082e+04 9.61820481458291e+03 1.92857959665008e+04 -2.97179247807308e+00 -1.13917730859654e+00 
15 -1.49481429729101e+04 9.51235191671929e+03 1.92333161756437e+04 -2.95664355716412e+00 -1.15878434402002e+00 
15 -1.50827480684467e+04 9.40612865828126e+03 1.91799784053540e+04 -2.94136697199890e+00 -1.17832501985105e+00 
15 -1.52165678632910e+04 9.29953652372036e+03 1.91257846980509e+04 -2.92596310766613e+00 -1.19779927865023e+00 
15 -1.53496028286008e+04 9.19257694002542e+03 1.90707369906673e+04 -2.91043233304206e+00 -1.21720705854192e+00 
15 -1.54818533641974e+04 9.08525127797294e+03 1.90148371155795e+04 -2.89477500100461e+00 -1.23654829303628e+00 
15 -1.56133197975402e+04 8.97756085336023e+03 1.89580868015141e+04 -2.87899144864378e+00 -1.25582291085183e+00 
15 -1.57440023826978e+04 8.86950692822296e+03 1.89004876744343e+04 -2.86308199746892e+00 -1.27503083573849e+00 
15 -1.58739012993134e+04 8.76109071203700e+03 1.88420412584050e+04 -2.84704695361238e+00 -1.29417198630099e+00 
15 -1.60030166515646e+04 8.65231336290641e+03 1.87827489764381e+04 -2.83088660803025e+00 -1.31324627582231e+00 
15 -1.61313484671166e+04 8.54317598873643e+03 1.87226121513175e+04 -2.81460123669970e+00 -1.33225361208749e+00 
15 -1.62588966960679e+04 8.43367964839465e+03 1.86616320064047e+04 -2.79819110081360e+00 -1.35119389720712e+00 
15 -1.63856612098879e+04 8.32382535285863e+03 1.85998096664256e+04 -2.78165644697202e+00 -1.37006702744095e+00 
15 -1.65116418003461e+04 8.21361406635173e+03 1.85371461582375e+04 -2.76499750737101e+00 -1.38887289302111e+00 
15 -1.66368381784308e+04 8.10304670746864e+03 1.84736424115792e+04 -2.74821449998869e+00 -1.40761137797504e+00 
15 -1.67612499732584e+04 7.99212415028911e+03 1.84092992598022e+04 -2.73130762876870e+00 -1.42628235994793e+00 
15 -1.68848767309706e+04 7.88084722548344e+03 1.83441174405847e+04 -2.71427708380121e+00 -1.44488571002455e+00 
15 -1.70077179136213e+04 7.76921672140694e+03 1.82780975966285e+04 -2.69712304150143e+00 -1.46342129255056e+00 
15 -1.71297728980494e+04 7.65723338518759e+03 1.82112402763389e+04 -2.67984566478592e+00 -1.48188896495281e+00 
15 -1.72510409747391e+04 7.54489792380494e+03 1.81435459344888e+04 -2.66244510324668e+00 -1.50028857755884e+00 
15 -1.73715213466667e+04 7.43221100516186e+03 1.80750149328662e+04 -2.64492149332304e+00 -1.51861997341550e+00 
15 -1.74912131281319e+04 7.31917325915013e+03 1.80056475409065e+04 -2.62727495847171e+00 -1.53688298810622e+00 
15 -1.76101153435736e+04 7.20578527871023e+03 1.79354439363099e+04 -2.60950560933487e+00 -1.55507744956719e+00 
15 -1.77282269263710e+04 7.09204762088519e+03 1.78644042056436e+04 -2.59161354390635e+00 -1.57320317790229e+00 
15 -1.78455467176261e+04 6.97796080787087e+03 1.77925283449294e+04 -2.57359884769634e+00 -1.59125998519640e+00 
15 -1.79620734649297e+04 6.86352532806168e+03 1.77198162602186e+04 -2.55546159389427e+00 -1.60924767532734e+00 
15 -1.80778058211090e+04 6.74874163709379e+03 1.76462677681520e+04 -2.53720184353045e+00 -1.62716604377601e+00 
15 -1.81927423429560e+04 6.63361015888480e+03 1.75718825965069e+04 -2.51881964563605e+00 -1.64501487743494e+00 
15 -1.83068814899360e+04 6.51813128667287e+03 1.74966603847328e+04 -2.50031503740206e+00 -1.66279395441479e+00 
15 -1.84202216228764e+04 6.40230538405339e+03 1.74206006844728e+04 -2.48168804433689e+00 -1.68050304384905e+00 
15 -1.85327610026336e+04 6.28613278601619e+03 1.73437029600742e+04 -2.46293868042300e+00 -1.69814190569652e+00 
15 -1.86444977887381e+04 6.16961379998225e+03 1.72659665890877e+04 -2.44406694827251e+00 -1.71571029054172e+00 
15 -1.87554300380172e+04 6.05274870684197e+03 1.71873908627551e+04 -2.42507283928202e+00 -1.73320793939284e+00 
15 -1.88655557031944e+04 5.93553776199421e+03 1.71079749864864e+04 -2.40595633378661e+00 -1.75063458347748e+00 
15 -1.89748726314638e+04 5.81798119638858e+03 1.70277180803272e+04 -2.38671740121326e+00 -1.76798994403565e+00 
15 -1.90833785630410e+04 5.70007921756965e+03 1.69466191794150e+04 -2.36735600023369e+00 -1.78527373211037e+00 
15 -1.91910711296868e+04 5.58183201072637e+03 1.68646772344284e+04 -2.34787207891693e+00 -1.80248564833523e+00 
15 -1.92979478532061e+04 5.46323973974407e+03 1.67818911120251e+04 -2.32826557488135e+00 -1.81962538271941e+00 
15 -1.94040061439174e+04 5.34430254826381e+03 1.66982595952732e+04 -2.30853641544678e+00 -1.83669261442940e+00 
15 -1.95092432990969e+04 5.22502056074556e+03 1.66137813840730e+04 -2.28868451778637e+00 -1.85368701156795e+00 
15 -1.96136565013919e+04 5.10539388353994e+03 1.65284550955734e+04 -2.26870978907861e+00 -1.87060823094950e+00 
15 -1.97172428172049e+04 4.98542260596613e+03 1.64422792645789e+04 -2.24861212665951e+00 -1.88745591787248e+00 
15 -1.98199991950482e+04 4.86510680139887e+03 1.63552523439520e+04 -2.22839141817508e+00 -1.90422970588809e+00 
15 -1.99219224638663e+04 4.74444652836397e+03 1.62673727050085e+04 -2.20804754173423e+00 -1.92092921656552e+00 
15 -2.00230093313266e+04 4.62344183164432e+03 1.61786386379078e+04 -2.18758036606229e+00 -1.93755405925343e+00 
15 -2.01232563820776e+04 4.50209274339566e+03 1.60890483520379e+04 -2.16698975065511e+00 -1.95410383083772e+00 
15 -2.02226600759722e+04 4.38039928427517e+03 1.59985999763965e+04 -2.14627554593414e+00 -1.97057811549517e+00 
15 -2.03212167462581e+04 4.25836146458095e+03 1.59072915599673e+04 -2.12543759340228e+00 -1.98697648444323e+00 
15 -2.04189225977309e+04 4.13597928540637e+03 1.58151210720937e+04 -2.10447572580108e+00 -2.00329849568538e+00 
15 -2.05157737048523e+04 4.01325273980690e+03 1.57220864028496e+04 -2.08338976726891e+00 -2.01954369375237e+00 
15 -2.06117660098303e+04 3.89018181398346e+03 1.56281853634078e+04 -2.06217953350074e+00 -2.03571160943880e+00 


END Ephemeris